GLOBALSTAR M069         
1 31573U 07020C   26185.01060900 -.00000074  00000+0  17262-3 0  9998
2 31573  51.9998 204.5094 0001943 185.4461 191.7470 12.23471845880868
GLOBALSTAR M072         
1 31574U 07020D   26185.10316809 -.00000066  00000+0  24822-3 0  9992
2 31574  51.9942  55.2111 0001590  12.4216 153.9122 11.91658571876994
GLOBALSTAR M066         
1 32265U 07048C   26184.47568569 -.00000097  00000+0 -21265-4 0  9995
2 32265  51.9604  11.1533 0005681  78.4029 297.6863 12.30387865862234
GLOBALSTAR M079         
1 37188U 10054A   26185.10440826 -.00000087  00000+0  91580-4 0  9996
2 37188  52.0045  57.1721 0001039  58.9556 105.6804 12.62266405724684
GLOBALSTAR M074         
1 37189U 10054B   26185.05147097 -.00000091  00000+0  68553-4 0  9994
2 37189  52.0027  56.5956 0000813  75.8731  88.2391 12.62261858725281
GLOBALSTAR M076         
1 37190U 10054C   26185.07792245 -.00000085  00000+0  10241-3 0  9992
2 37190  52.0037  56.7198 0001029  71.3395  92.9312 12.62262034725003
GLOBALSTAR M077         
1 37191U 10054D   26185.26567502 -.00000072  00000+0  11504-3 0  9999
2 37191  51.9939 135.9471 0002447 204.1450 304.5741 11.67547940723136
GLOBALSTAR M075         
1 37192U 10054E   26185.25040164 -.00000065  00000+0  21757-3 0  9992
2 37192  51.9943  98.2389 0000557  47.2767 121.4240 12.62267685724095
GLOBALSTAR M073         
1 37193U 10054F   26185.25123414 -.00000096  00000+0  44988-4 0  9999
2 37193  52.0074  12.3501 0001112  79.9511  90.9272 12.62266837726087
GLOBALSTAR M083         
1 37739U 11033A   26185.10595132 -.00000080  00000+0  13276-3 0  9995
2 37739  51.9877 320.9981 0000923  92.6622  79.0510 12.62263830695084
GLOBALSTAR M088         
1 37740U 11033B   26185.04410855 -.00000099  00000+0  29376-4 0  9997
2 37740  52.0192 227.6563 0000297 151.7317 217.3793 12.62269190690629
GLOBALSTAR M091         
1 37741U 11033C   26185.06359863 -.00000119  00000+0 -84035-4 0  9998
2 37741  51.9965 190.5360 0000128 352.6250  45.8572 12.62264132691418
GLOBALSTAR M085         
1 37742U 11033D   26185.23086068 -.00000099  00000+0  24866-4 0  9994
2 37742  52.0109 141.3327 0000517  15.3771 123.5837 12.62264186691946
GLOBALSTAR M081         
1 37743U 11033E   26185.34180869 -.00000099  00000+0  24179-4 0  9998
2 37743  51.9939 143.4117 0000421  40.9861 122.1506 12.62265309692109
GLOBALSTAR M089         
1 37744U 11033F   26185.22293084 -.00000078  00000+0  14618-3 0  9993
2 37744  51.9928  97.9297 0000594  80.7132  82.9710 12.62267514692935
GLOBALSTAR M084         
1 38040U 11080A   26185.15869544 -.00000090  00000+0  77625-4 0  9999
2 38040  52.0026 325.6154 0001040 113.7367  57.8256 12.62267743670906
GLOBALSTAR M080         
1 38041U 11080B   26184.80815455 -.00000104  00000+0  72584-6 0  9990
2 38041  52.0081 328.4065 0000422  80.5488  67.3888 12.62265395670984
GLOBALSTAR M082         
1 38042U 11080C   26184.98734001 -.00000077  00000+0  14668-3 0  9992
2 38042  52.0078 283.3647 0000357 111.7409  60.5993 12.62263909671716
GLOBALSTAR M092         
1 38043U 11080D   26185.27763289 -.00000075  00000+0  15794-3 0  9995
2 38043  52.0098  12.8780 0000847  88.8076  82.5328 12.62267530670203
GLOBALSTAR M090         
1 38044U 11080E   26185.21740355 -.00000074  00000+0  16688-3 0  9991
2 38044  52.0126 276.6260 0000535 105.7516 271.4525 12.62252830671869
GLOBALSTAR M086         
1 38045U 11080F   26185.23899309 -.00000066  00000+0  21059-3 0  9997
2 38045  51.9898 276.4614 0001654  95.7056 282.2479 12.62287599671818
GLOBALSTAR M097         
1 39072U 13005A   26185.26668432 -.00000114  00000+0 -57665-4 0  9999
2 39072  52.0012 191.3447 0000191  42.3338 317.7543 12.62271304619066
GLOBALSTAR M093         
1 39073U 13005B   26185.23987038 -.00000113  00000+0 -50064-4 0  9998
2 39073  52.0072 184.7789 0000378  32.8401 327.2489 12.62266176619011
GLOBALSTAR M094         
1 39074U 13005C   26185.16054028 -.00000083  00000+0  11442-3 0  9996
2 39074  51.9958  99.1202 0000814  42.4794 317.6135 12.62268513620615
GLOBALSTAR M096         
1 39075U 13005D   26185.17406352 -.00000106  00000+0 -13784-4 0  9998
2 39075  52.0052 147.8933 0000468  19.7549 340.3336 12.62265635619532
GLOBALSTAR M078         
1 39076U 13005E   26185.14715322 -.00000092  00000+0  67311-4 0  9994
2 39076  51.9853 231.9639 0000599 302.3117  57.7692 12.62259972618153
GLOBALSTAR M095         
1 39077U 13005F   26185.09467339 -.00000090  00000+0  75052-4 0  9990
2 39077  52.0059 229.7514 0000153   0.4726 359.6141 12.62263933618008
GLOBALSTAR M087         
1 52888U 22064A   26185.18701801 -.00000105  00000+0 -77067-5 0  9992
2 52888  52.0011  10.6979 0000941  69.3369 290.7599 12.62269295193282
